STARLINK-5789           
1 56003U 23042T   25248.29781212 -.00004308  00000+0 -30385-3 0  9996
2 56003  43.0041 343.3955 0001296 271.2144  88.8550 15.02558372135022
STARLINK-5787           
1 56004U 23042U   25247.74713023 -.00000075  00000+0  95001-5 0  9995
2 56004  43.0042 346.1428 0001236 270.1361  89.9340 15.02529753134943
STARLINK-5801           
1 56005U 23042V   25248.28893881 -.00000002  00000+0  14912-4 0  9998
2 56005  43.0041 343.3266 0001287 263.1993  96.8703 15.02533474135026
STARLINK-5794           
1 56006U 23042W   25247.74269200 -.00003052  00000+0 -21091-3 0  9995
2 56006  43.0044 346.1074 0001405 284.1640  75.9046 15.02538184134943
STARLINK-5806           
1 56007U 23042X   25248.27781637 -.00000215  00000+0 -85595-6 0  9998
2 56007  43.0055 343.2438 0001367 259.8815 100.1873 15.02561081135029
STARLINK-5803           
1 56008U 23042Y   25247.59542079 -.00000512  00000+0 -22818-4 0  9995
2 56008  43.0053 347.5667 0001432 271.7896  88.2782 15.02530794134902
STARLINK-5964           
1 56009U 23042Z   25247.74379362 -.00004251  00000+0 -29966-3 0  9990
2 56009  43.0040 346.1116 0001219 250.9055 109.1655 15.02557066134949
STARLINK-5968           
1 56010U 23042AA  25247.60639492 -.00001194  00000+0 -73330-4 0  9998
2 56010  43.0050 346.8053 0001316 248.3912 111.6791 15.02529821134925
STARLINK-5936           
1 56011U 23042AB  25247.53805709  .00002947  00000+0  23306-3 0  9999
2 56011  43.0027 334.9986 0000939 272.6975  87.3760 15.02552136135057
STARLINK-5940           
1 56012U 23042AC  25247.74306425  .00004102  00000+0  31857-3 0  9999
2 56012  43.0033 333.9594 0001269 266.4143  93.6554 15.02534883135087
STARLINK-5941           
1 56013U 23042AD  25247.73602553 -.00000621  00000+0 -30878-4 0  9997
2 56013  43.0038 346.0584 0001427 272.4421  87.6258 15.02535956134949
STARLINK-5942           
1 56014U 23042AE  25247.53697037 -.00000025  00000+0  13205-4 0  9999
2 56014  43.0034 334.9882 0001363 264.4156  95.6531 15.02546686135056
STARLINK-5939           
1 56015U 23042AF  25247.73973520 -.00000269  00000+0 -48183-5 0  9991
2 56015  43.0048 333.9339 0001563 268.1610  91.9054 15.02530629135088
STARLINK-5943           
1 56016U 23042AG  25247.71976156 -.00002103  00000+0 -14072-3 0  9995
2 56016  43.0037 333.7804 0000898 243.6367 116.4383 15.02527832135089
STARLINK-5934           
1 56017U 23042AH  25247.53142728 -.00000471  00000+0 -19801-4 0  9998
2 56017  43.0035 334.9506 0001226 265.7320  94.3382 15.02538462135051
STARLINK-5945           
1 56018U 23042AJ  25247.58790979  .00000066  00000+0  19958-4 0  9992
2 56018  43.0049 334.5127 0001311 257.5878 102.4818 15.02529788135061
