[{"OBJECT_NAME":"STARLINK-5789","OBJECT_ID":"2023-042T","EPOCH":"2025-09-05T07:08:50.967168","MEAN_MOTION":15.02558372,"ECCENTRICITY":0.00012963,"INCLINATION":43.0041,"RA_OF_ASC_NODE":343.3955,"ARG_OF_PERICENTER":271.2144,"MEAN_ANOMALY":88.855,"EPHEMERIS_TYPE":0,"CLASSIFICATION_TYPE":"U","NORAD_CAT_ID":56003,"ELEMENT_SET_NO":999,"REV_AT_EPOCH":13502,"BSTAR":-0.00030384528,"MEAN_MOTION_DOT":-4.308e-5,"MEAN_MOTION_DDOT":0},{"OBJECT_NAME":"STARLINK-5787","OBJECT_ID":"2023-042U","EPOCH":"2025-09-04T17:55:52.051872","MEAN_MOTION":15.02529753,"ECCENTRICITY":0.0001236,"INCLINATION":43.0042,"RA_OF_ASC_NODE":346.1428,"ARG_OF_PERICENTER":270.1361,"MEAN_ANOMALY":89.934,"EPHEMERIS_TYPE":0,"CLASSIFICATION_TYPE":"U","NORAD_CAT_ID":56004,"ELEMENT_SET_NO":999,"REV_AT_EPOCH":13494,"BSTAR":9.500088e-6,"MEAN_MOTION_DOT":-7.5e-7,"MEAN_MOTION_DDOT":0},{"OBJECT_NAME":"STARLINK-5801","OBJECT_ID":"2023-042V","EPOCH":"2025-09-05T06:56:04.313184","MEAN_MOTION":15.02533474,"ECCENTRICITY":0.00012879,"INCLINATION":43.0041,"RA_OF_ASC_NODE":343.3266,"ARG_OF_PERICENTER":263.1993,"MEAN_ANOMALY":96.8703,"EPHEMERIS_TYPE":0,"CLASSIFICATION_TYPE":"U","NORAD_CAT_ID":56005,"ELEMENT_SET_NO":999,"REV_AT_EPOCH":13502,"BSTAR":1.4912471e-5,"MEAN_MOTION_DOT":-2.0e-8,"MEAN_MOTION_DDOT":0},{"OBJECT_NAME":"STARLINK-5794","OBJECT_ID":"2023-042W","EPOCH":"2025-09-04T17:49:28.588800","MEAN_MOTION":15.02538184,"ECCENTRICITY":0.00014059,"INCLINATION":43.0044,"RA_OF_ASC_NODE":346.1074,"ARG_OF_PERICENTER":284.164,"MEAN_ANOMALY":75.9046,"EPHEMERIS_TYPE":0,"CLASSIFICATION_TYPE":"U","NORAD_CAT_ID":56006,"ELEMENT_SET_NO":999,"REV_AT_EPOCH":13494,"BSTAR":-0.00021091252,"MEAN_MOTION_DOT":-3.052e-5,"MEAN_MOTION_DDOT":0},{"OBJECT_NAME":"STARLINK-5806","OBJECT_ID":"2023-042X","EPOCH":"2025-09-05T06:40:03.334368","MEAN_MOTION":15.02561081,"ECCENTRICITY":0.00013677,"INCLINATION":43.0055,"RA_OF_ASC_NODE":343.2438,"ARG_OF_PERICENTER":259.8815,"MEAN_ANOMALY":100.1873,"EPHEMERIS_TYPE":0,"CLASSIFICATION_TYPE":"U","NORAD_CAT_ID":56007,"ELEMENT_SET_NO":999,"REV_AT_EPOCH":13502,"BSTAR":-8.55954e-7,"MEAN_MOTION_DOT":-2.15e-6,"MEAN_MOTION_DDOT":0},{"OBJECT_NAME":"STARLINK-5803","OBJECT_ID":"2023-042Y","EPOCH":"2025-09-04T14:17:24.356256","MEAN_MOTION":15.02530794,"ECCENTRICITY":0.00014322,"INCLINATION":43.0053,"RA_OF_ASC_NODE":347.5667,"ARG_OF_PERICENTER":271.7896,"MEAN_ANOMALY":88.2782,"EPHEMERIS_TYPE":0,"CLASSIFICATION_TYPE":"U","NORAD_CAT_ID":56008,"ELEMENT_SET_NO":999,"REV_AT_EPOCH":13490,"BSTAR":-2.2817786e-5,"MEAN_MOTION_DOT":-5.12e-6,"MEAN_MOTION_DDOT":0},{"OBJECT_NAME":"STARLINK-5964","OBJECT_ID":"2023-042Z","EPOCH":"2025-09-04T17:51:03.768768","MEAN_MOTION":15.02557066,"ECCENTRICITY":0.00012196,"INCLINATION":43.004,"RA_OF_ASC_NODE":346.1116,"ARG_OF_PERICENTER":250.9055,"MEAN_ANOMALY":109.1655,"EPHEMERIS_TYPE":0,"CLASSIFICATION_TYPE":"U","NORAD_CAT_ID":56009,"ELEMENT_SET_NO":999,"REV_AT_EPOCH":13494,"BSTAR":-0.00029965929,"MEAN_MOTION_DOT":-4.251e-5,"MEAN_MOTION_DDOT":0},{"OBJECT_NAME":"STARLINK-5968","OBJECT_ID":"2023-042AA","EPOCH":"2025-09-04T14:33:12.521088","MEAN_MOTION":15.02529821,"ECCENTRICITY":0.00013161,"INCLINATION":43.005,"RA_OF_ASC_NODE":346.8053,"ARG_OF_PERICENTER":248.3912,"MEAN_ANOMALY":111.6791,"EPHEMERIS_TYPE":0,"CLASSIFICATION_TYPE":"U","NORAD_CAT_ID":56010,"ELEMENT_SET_NO":999,"REV_AT_EPOCH":13492,"BSTAR":-7.3329505e-5,"MEAN_MOTION_DOT":-1.194e-5,"MEAN_MOTION_DDOT":0},{"OBJECT_NAME":"STARLINK-5936","OBJECT_ID":"2023-042AB","EPOCH":"2025-09-04T12:54:48.132576","MEAN_MOTION":15.02552136,"ECCENTRICITY":9.392e-5,"INCLINATION":43.0027,"RA_OF_ASC_NODE":334.9986,"ARG_OF_PERICENTER":272.6975,"MEAN_ANOMALY":87.376,"EPHEMERIS_TYPE":0,"CLASSIFICATION_TYPE":"U","NORAD_CAT_ID":56011,"ELEMENT_SET_NO":999,"REV_AT_EPOCH":13505,"BSTAR":0.00023305669,"MEAN_MOTION_DOT":2.947e-5,"MEAN_MOTION_DDOT":0},{"OBJECT_NAME":"STARLINK-5940","OBJECT_ID":"2023-042AC","EPOCH":"2025-09-04T17:50:00.751200","MEAN_MOTION":15.02534883,"ECCENTRICITY":0.00012694,"INCLINATION":43.0033,"RA_OF_ASC_NODE":333.9594,"ARG_OF_PERICENTER":266.4143,"MEAN_ANOMALY":93.6554,"EPHEMERIS_TYPE":0,"CLASSIFICATION_TYPE":"U","NORAD_CAT_ID":56012,"ELEMENT_SET_NO":999,"REV_AT_EPOCH":13508,"BSTAR":0.00031856853,"MEAN_MOTION_DOT":4.102e-5,"MEAN_MOTION_DDOT":0},{"OBJECT_NAME":"STARLINK-5941","OBJECT_ID":"2023-042AD","EPOCH":"2025-09-04T17:39:52.605792","MEAN_MOTION":15.02535956,"ECCENTRICITY":0.00014275,"INCLINATION":43.0038,"RA_OF_ASC_NODE":346.0584,"ARG_OF_PERICENTER":272.4421,"MEAN_ANOMALY":87.6258,"EPHEMERIS_TYPE":0,"CLASSIFICATION_TYPE":"U","NORAD_CAT_ID":56013,"ELEMENT_SET_NO":999,"REV_AT_EPOCH":13494,"BSTAR":-3.0878127e-5,"MEAN_MOTION_DOT":-6.21e-6,"MEAN_MOTION_DDOT":0},{"OBJECT_NAME":"STARLINK-5942","OBJECT_ID":"2023-042AE","EPOCH":"2025-09-04T12:53:14.239968","MEAN_MOTION":15.02546686,"ECCENTRICITY":0.00013638,"INCLINATION":43.0034,"RA_OF_ASC_NODE":334.9882,"ARG_OF_PERICENTER":264.4156,"MEAN_ANOMALY":95.6531,"EPHEMERIS_TYPE":0,"CLASSIFICATION_TYPE":"U","NORAD_CAT_ID":56014,"ELEMENT_SET_NO":999,"REV_AT_EPOCH":13505,"BSTAR":1.3205009e-5,"MEAN_MOTION_DOT":-2.5e-7,"MEAN_MOTION_DDOT":0},{"OBJECT_NAME":"STARLINK-5939","OBJECT_ID":"2023-042AF","EPOCH":"2025-09-04T17:45:13.121280","MEAN_MOTION":15.02530629,"ECCENTRICITY":0.0001563,"INCLINATION":43.0048,"RA_OF_ASC_NODE":333.9339,"ARG_OF_PERICENTER":268.161,"MEAN_ANOMALY":91.9054,"EPHEMERIS_TYPE":0,"CLASSIFICATION_TYPE":"U","NORAD_CAT_ID":56015,"ELEMENT_SET_NO":999,"REV_AT_EPOCH":13508,"BSTAR":-4.818273e-6,"MEAN_MOTION_DOT":-2.69e-6,"MEAN_MOTION_DDOT":0},{"OBJECT_NAME":"STARLINK-5943","OBJECT_ID":"2023-042AG","EPOCH":"2025-09-04T17:16:27.398784","MEAN_MOTION":15.02527832,"ECCENTRICITY":8.985e-5,"INCLINATION":43.0037,"RA_OF_ASC_NODE":333.7804,"ARG_OF_PERICENTER":243.6367,"MEAN_ANOMALY":116.4383,"EPHEMERIS_TYPE":0,"CLASSIFICATION_TYPE":"U","NORAD_CAT_ID":56016,"ELEMENT_SET_NO":999,"REV_AT_EPOCH":13508,"BSTAR":-0.0001407165,"MEAN_MOTION_DOT":-2.103e-5,"MEAN_MOTION_DDOT":0},{"OBJECT_NAME":"STARLINK-5934","OBJECT_ID":"2023-042AH","EPOCH":"2025-09-04T12:45:15.316992","MEAN_MOTION":15.02538462,"ECCENTRICITY":0.00012267,"INCLINATION":43.0035,"RA_OF_ASC_NODE":334.9506,"ARG_OF_PERICENTER":265.732,"MEAN_ANOMALY":94.3382,"EPHEMERIS_TYPE":0,"CLASSIFICATION_TYPE":"U","NORAD_CAT_ID":56017,"ELEMENT_SET_NO":999,"REV_AT_EPOCH":13505,"BSTAR":-1.9801218e-5,"MEAN_MOTION_DOT":-4.71e-6,"MEAN_MOTION_DDOT":0},{"OBJECT_NAME":"STARLINK-5945","OBJECT_ID":"2023-042AJ","EPOCH":"2025-09-04T14:06:35.405856","MEAN_MOTION":15.02529788,"ECCENTRICITY":0.00013114,"INCLINATION":43.0049,"RA_OF_ASC_NODE":334.5127,"ARG_OF_PERICENTER":257.5878,"MEAN_ANOMALY":102.4818,"EPHEMERIS_TYPE":0,"CLASSIFICATION_TYPE":"U","NORAD_CAT_ID":56018,"ELEMENT_SET_NO":999,"REV_AT_EPOCH":13506,"BSTAR":1.9957566e-5,"MEAN_MOTION_DOT":6.6e-7,"MEAN_MOTION_DDOT":0}]
